[{"OBJECT_NAME":"STARLINK-5022","OBJECT_ID":"2022-119T","EPOCH":"2026-03-09T22:19:50.129184","MEAN_MOTION":15.08840409,"ECCENTRICITY":0.00015172,"INCLINATION":53.2179,"RA_OF_ASC_NODE":322.8459,"ARG_OF_PERICENTER":78.3199,"MEAN_ANOMALY":281.7964,"EPHEMERIS_TYPE":0,"CLASSIFICATION_TYPE":"U","NORAD_CAT_ID":53903,"ELEMENT_SET_NO":999,"REV_AT_EPOCH":19172,"BSTAR":-0.0001058895,"MEAN_MOTION_DOT":-1.973e-5,"MEAN_MOTION_DDOT":0},{"OBJECT_NAME":"COSMOS 375 DEB","OBJECT_ID":"1970-091Y","EPOCH":"2026-03-09T16:59:09.666528","MEAN_MOTION":14.26288602,"ECCENTRICITY":0.0427749,"INCLINATION":62.6882,"RA_OF_ASC_NODE":210.7792,"ARG_OF_PERICENTER":160.2239,"MEAN_ANOMALY":201.5993,"EPHEMERIS_TYPE":0,"CLASSIFICATION_TYPE":"U","NORAD_CAT_ID":4727,"ELEMENT_SET_NO":999,"REV_AT_EPOCH":73963,"BSTAR":0.0022516368,"MEAN_MOTION_DOT":0.00014343,"MEAN_MOTION_DDOT":0}]
